[{"OBJECT_NAME":"STARLINK-35937","OBJECT_ID":"2025-265B","EPOCH":"2026-03-09T22:02:47.230944","MEAN_MOTION":15.27611932,"ECCENTRICITY":0.00021615,"INCLINATION":43.0011,"RA_OF_ASC_NODE":277.0546,"ARG_OF_PERICENTER":258.4803,"MEAN_ANOMALY":101.5806,"EPHEMERIS_TYPE":0,"CLASSIFICATION_TYPE":"U","NORAD_CAT_ID":66517,"ELEMENT_SET_NO":999,"REV_AT_EPOCH":1714,"BSTAR":0.0010729742,"MEAN_MOTION_DOT":0.00029411,"MEAN_MOTION_DDOT":0},{"OBJECT_NAME":"DMSP 5D-2 F14 DEB","OBJECT_ID":"1997-012E","EPOCH":"2026-03-09T23:05:42.500544","MEAN_MOTION":15.25086034,"ECCENTRICITY":0.00083151,"INCLINATION":98.7933,"RA_OF_ASC_NODE":208.6058,"ARG_OF_PERICENTER":272.9178,"MEAN_ANOMALY":87.1104,"EPHEMERIS_TYPE":0,"CLASSIFICATION_TYPE":"U","NORAD_CAT_ID":24778,"ELEMENT_SET_NO":999,"REV_AT_EPOCH":51788,"BSTAR":0.0054670036,"MEAN_MOTION_DOT":0.00139299,"MEAN_MOTION_DDOT":0}]
